1 56322U 23058F   25331.89705323  .00000404  00000+0  35998-4 0  9992
2 56322  97.6042 330.4727 0002119 123.8179 236.3247 15.01259685142509
